LUOJIA-1 01
1 43485U 18048B   26071.21450781  .00001709  00000-0  19722-3 0  9990
2 43485  97.8145 150.9706 0010315  83.0061 277.2328 14.86888967419804
DIWATA-2B (PO-101)
1 43678U 18084H   26071.19048836  .00001553  00000-0  13007-3 0  9992
2 43678  98.1041 263.3294 0012057 119.3342 240.9086 14.99973688401671
ESHAIL-2
1 43700U 18090A   26071.21780878  .00000145  00000-0  00000+0 0  9998
2 43700   0.0176 151.1390 0001103 195.0249 287.9153  1.00270826 26701
K2SAT
1 43761U 18099D   26071.10580090  .00002410  00000-0  16882-3 0  9992
2 43761  97.4321 115.4622 0010308 325.4767  34.5790 15.06102215397499
AISTECHSAT-2
1 43768U 18099L   26071.12542273  .00005792  00000-0  31921-3 0  9999
2 43768  97.4435 121.2943 0003084 275.5876  84.5004 15.14375292397581
SNUSAT-2
1 43782U 18099AA  26071.10226177  .00009492  00000-0  44037-3 0  9998
2 43782  97.4193 126.0289 0009009 275.2135  84.8072 15.20222723398274
ITASAT-1
1 43786U 18099AE  26071.14806744  .00008555  00000-0  42648-3 0  9995
2 43786  97.4163 124.6267 0012015 337.3840  22.6863 15.17722912398188
EAGLET-1
1 43790U 18099AJ  26071.13520707  .00005016  00000-0  29439-3 0  9993
2 43790  97.4370 123.3671 0010190 328.4087  31.6531 15.12137116397669
ESEO
1 43792U 18099AL  26071.11707748  .00002176  00000-0  16189-3 0  9997
2 43792  97.4115 112.6197 0010762 308.9089  51.1177 15.03927562397218
MINXSS-2
1 43758U 18099A   26071.18492109  .00035943  00000-0  88377-3 0  9994
2 43758  97.4621 145.0664 0007650 249.1351 110.9076 15.40523579399160
FOX-1CLIFF (AO-95)
1 43770U 18099N   26071.13750565  .00012688  00000-0  51835-3 0  9996
2 43770  97.4504 131.8458 0008167 337.4899  22.5978 15.24487534398429
CORVUS-BC4
1 43767U 18099K   26071.17466866  .00004990  00000-0  29702-3 0  9999
2 43767  97.4207 116.9887 0007765 348.0636  12.0409 15.11645334397742
CZ-4B R/B
1 43656U 18081B   26071.19339440  .00000132  00000-0  56389-4 0  9992
2 43656  99.3711 341.3854 0204687 185.9082 173.9682 14.31823662385428
COSMOS 2504 [i]
1 40555U 15020D   26071.17288778  .00000346  00000-0  12139-3 0  9993
2 40555  82.5176 306.2875 0607879 177.8996 182.4941 13.61333982536995
MERIDIAN-4
1 37398U 11018A   26069.44698924  .00011126  00000-0  26909-2 0  9999
2 37398  62.0961  89.8066 7505107 264.5019  14.7132  2.01533683108788
MERIDIAN-6
1 38995U 12063A   26068.91096583  .00000433  00000-0  00000+0 0  9998
2 38995  64.2459   9.4826 7326744 229.0450  40.0539  2.00541677 97515
MERIDIAN-7
1 40296U 14069A   26069.97383221  .00000139  00000-0  00000-0 0  9992
2 40296  63.4634 225.0663 6685625 271.2001  19.0357  2.00583191 83267
METOP-C
1 43689U 18087A   26071.21454593  .00000133  00000-0  80671-4 0  9996
2 43689  98.6760 132.5445 0002180  96.3363 263.8063 14.21497941381050
FENGYUN-3B
1 37214U 10059A   26071.21136641  .00000060  00000-0  54200-4 0  9993
2 37214  98.9761 116.7601 0023121 101.2470 345.6252 14.14817607793718
FENGYUN-3C
1 39260U 13052A   26071.22013061  .00000122  00000-0  83199-4 0  9991
2 39260  98.4895  49.5945 0013728 305.4511  54.5382 14.15729846644841
EWS-G1 (GOES-13)
1 29155U 06018A   26071.11381751 -.00000029  00000-0  00000+0 0  9991
2 29155   4.2797  77.6023 0061956 273.7502  66.9919  0.98787768 42287
FENGYUN-2H
1 43491U 18050A   26071.15957773 -.00000126  00000-0  00000+0 0  9994
2 43491   2.7794  80.2570 0001356 171.2334  54.8550  1.00272800 28467
FENGYUN-2G
1 40367U 14090A   26071.02099713 -.00000301  00000-0  00000+0 0  9995
2 40367   5.3921  73.9895 0001467 140.5067  62.4468  1.00271984 41023
INMARSAT 4-F1
1 28628U 05009A   26071.15392063  .00000035  00000-0  00000+0 0  9992
2 28628   5.0381  42.7240 0002934 339.2269  21.3791  1.00272562 76692
INMARSAT 4-F2
1 28899U 05044A   26071.17231778 -.00000258  00000-0  00000+0 0  9996
2 28899   4.9678  43.7980 0002759 333.6124 357.9354  1.00271398 74545
INMARSAT 4-F3
1 33278U 08039A   26070.91056843 -.00000137  00000-0  00000+0 0  9995
2 33278   4.2100  31.2290 0002703 325.7834  42.3469  1.00270631 45572
INMARSAT 4A-F4 (ALPHASAT)
1 39215U 13038A   26071.14883101  .00000136  00000-0  00000+0 0  9996
2 39215   2.9829   2.0745 0001891  15.5265 230.6550  1.00271266 43040
ASTROCAST
1 43798U 18099AS  26071.19752284  .00035020  00000-0  78848-3 0  9990
2 43798  97.4453 147.1102 0005749 200.2111 159.8910 15.43196454399447
JY1SAT (JO-97)
1 43803U 18099AX  26071.10563873  .00017018  00000-0  58054-3 0  9996
2 43803  97.4251 133.7823 0004837 246.9534 113.1197 15.30404207398762
SUOMI-100
1 43804U 18099AY  26070.71543182  .00015318  00000-0  59617-3 0  9991
2 43804  97.4312 131.5814 0009030 261.9378  98.0836 15.26061739398541
GEO-KOMPSAT-2A
1 43823U 18100A   26071.02663047 -.00000343  00000-0  00000+0 0  9994
2 43823   0.0346  16.3637 0001652  39.9295 251.2273  1.00272824 26659
UWE-4
1 43880U 18111E   26070.75425463  .00037149  00000-0  92469-3 0  9993
2 43880  97.5843 355.1172 0007058 331.4045  28.6813 15.40148579395756
D-STAR ONE SPARROW
1 43881U 18111F   26070.79968604  .00079166  00000-0  11636-2 0  9998
2 43881  97.6103   4.0674 0003689  37.3103 322.8407 15.55202979396151
METEOR M2-2
1 44387U 19038A   26071.23373483  .00000320  00000-0  15837-3 0  9998
2 44387  98.9096  57.1208 0000779 357.4246   2.6928 14.24335537347497
MOMENTUS-X1
1 44408U 19038Y   26071.04157234  .00034369  00000-0  43938-3 0  9998
2 44408  97.6912 108.0550 0009152  23.2346 336.9321 15.59121290371386
MERIDIAN-8
1 44453U 19046A   26070.51722844 -.00000114  00000-0  00000+0 0  9994
2 44453  63.0422  63.2622 7044915 274.5861  15.0575  2.00621571 48383
TAURUS-1
1 44530U 19059C   26071.21124480  .00007715  00000-0  12689-2 0  9996
2 44530  98.6312 230.1559 0008452 249.3435 110.6864 14.70860735344380
GAOFEN 12-01
1 44819U 19082A   26071.22350036  .00000603  00000-0  85626-4 0  9993
2 44819  97.8140  80.1550 0001662  55.6067 304.5302 14.80368742339746
CAS-6 (TO-108)
1 44881U 19093C   26071.17653340  .00001481  00000-0  17376-3 0  9993
2 44881  97.7604 145.7553 0014795  50.3956 309.8563 14.86350133337005
ELEKTRO-L3
1 44903U 19095A   26071.02941763 -.00000095  00000-0  00000+0 0  9996
2 44903   0.0336   3.7832 0001511 344.4648 267.9336  1.00270743 22732
DOSAAF-85 (RS-44)
1 44909U 19096E   26070.98352919  .00000035  00000-0  95817-4 0  9994
2 44909  82.5206  44.2894 0217837  11.9654 348.6505 12.79747487289912
MERIDIAN-9
1 45254U 20015A   26069.76388959 -.00000023  00000-0  00000-0 0  9992
2 45254  65.5014 329.4671 6889598 279.5564  14.6792  2.00605923 44314
ION-MK01
1 46274U 20061C   26071.19113891  .00209915  00000-0  73387-3 0  9998
2 46274  97.1951 150.2279 0002329 233.1590 126.9469 15.88765334308044
DEKART
1 46493U 20068H   26071.15131329  .00014086  00000-0  41769-3 0  9992
2 46493  97.8781  73.6398 0007341 268.4330  91.6071 15.34936203300873
NORBY
1 46494U 20068J   26071.15695603  .00026025  00000-0  56825-3 0  9998
2 46494  97.8699  78.8672 0005205 236.5338 123.5412 15.44179355301216
SALSAT (TUBSAT 22)
1 46495U 20068K   26071.22667846  .00009790  00000-0  35833-3 0  9991
2 46495  97.8863  68.5046 0008116 285.6755  74.3587 15.28242349300540
NETSAT-4
1 46504U 20068U   26070.99435641  .00018940  00000-0  46883-3 0  9995
2 46504  97.8644  71.6686 0004192 327.7706  32.3283 15.40481459300792
NETSAT-3
1 46505U 20068V   26070.92175943  .00019840  00000-0  51279-3 0  9990
2 46505  97.8680  69.9454 0004710 350.1490   9.9661 15.39148488300703
NETSAT-1
1 46506U 20068W   26070.97096366  .00015498  00000-0  50187-3 0  9999
2 46506  97.8751  65.4103 0005465  12.3843 347.7530 15.32115481300407
NETSAT-2
1 46507U 20068X   26070.94591535  .00024065  00000-0  57116-3 0  9994
2 46507  97.8658  71.2259 0004097  16.0228 344.1146 15.41704655300736
ARKTIKA-M1
1 47719U 21016A   26065.31200600 -.00000142  00000-0  00000-0 0  9997
2 47719  63.2063  72.3539 7244489 269.4705  15.1937  2.00620361 36724
UNISAT-7
1 47945U 21022P   26070.96413691  .00015966  00000-0  43217-3 0  9997
2 47945  97.3968 335.0291 0011616  67.9519 292.2959 15.37700743274905
CSS (TIANHE-1)
1 48274U 21035A   26070.76324018  .00028963  00000-0  34031-3 0  9994
2 48274  41.4661 195.5440 0006800 284.6024  75.4061 15.60782980277934
FENGYUN-4B
1 48808U 21047A   26071.09327744 -.00000329  00000-0  00000+0 0  9998
2 48808   0.2102  77.4347 0008070 296.8690 293.6562  1.00275062 17590
CUTE-LASP
1 49263U 21088D   26071.23396830  .00051528  00000-0  48392-3 0  9993
2 49263  97.4224 163.5780 0003171 300.0350  60.0595 15.67011820247275
JILIN-01 GAOFEN 2F
1 49338U 21097A   26071.18490509  .00005260  00000-0  35447-3 0  9997
2 49338  97.6533 197.7680 0018859 193.8972 166.1738 15.06963444241708
TEIKYOSAT-4 (OORURI)
1 49396U 21102B   26071.06234034  .00001733  00000-0  11297-3 0  9992
2 49396  97.3792 104.2896 0010401 267.0175  92.9864 15.09129507238071
Z-SAT
1 49399U 21102E   26071.15850406  .00005269  00000-0  26570-3 0  9990
2 49399  97.3462 109.4194 0015653 221.5421 138.4625 15.17453381238721
KOSEN-1
1 49402U 21102H   26071.10227000  .00007651  00000-0  30521-3 0  9996
2 49402  97.3335 115.1788 0014097 183.9854 176.1275 15.25366425239216
CAMSAT XW-3 (CAS-9)
1 50466U 21131B   26071.21155826  .00000664  00000-0  21918-3 0  9995
2 50466  98.4952 164.1517 0004761  43.5533 316.6031 14.41255229221141
INSPIRESAT-1
1 51657U 22013B   26071.06960978  .00144773  00000-0  79633-3 0  9990
2 51657  97.4482 118.7216 0003835  90.0341 270.1365 15.79309024227254
GOES-18
1 51850U 22021A   26071.11676419  .00000097  00000-0  00000+0 0  9992
2 51850   0.0330  53.6470 0000811   5.0261  16.1083  1.00272193  5612
MERIDIAN-10
1 52145U 22030A   26069.77450843  .00000243  00000-0  00000+0 0  9993
2 52145  62.6663 151.3057 6759325 272.9514  17.8265  2.00612247 29067
BRO-6
1 52422U 22047AE  26071.21172347  .00017878  00000-0  38688-3 0  9990
2 52422  97.3418 160.8452 0005446  71.4906 288.6934 15.44511042216153
